MEAN_MOTION;ECCENTRICITY;INCLINATION;RA_OF_ASC_NODE;ARG_OF_PERICENTER;MEAN_ANOMALY;BSTAR;MEAN_MOTION_DOT;MEAN_MOTION_DDOT;TYPE
14.72257745;0.0003555;86.6126;21.1136;79.6528;280.5089;1.4966E-5;1.19E-6;0;Iridium
14.72257876;0.0003542;86.6127;20.8865;79.1202;281.0414;1.4953E-5;1.19E-6;0;Iridium
14.72257876;0.0003542;86.6127;20.8865;79.1202;281.0414;1.4953E-5;1.19E-6;0;Iridium
14.72257876;0.0003542;86.6127;20.8865;79.1202;281.0414;1.4953E-5;1.19E-6;0;Iridium
14.72257959;0.0003536;86.6128;20.6877;78.5439;281.6175;1.4466E-5;1.16E-6;0;Iridium
14.72258101;0.0003521;86.6129;20.4606;77.7987;282.3624;1.4763E-5;1.18E-6;0;Iridium
14.72258101;0.0003521;86.6129;20.4606;77.7987;282.3624;1.4763E-5;1.18E-6;0;Iridium
14.7225816;0.0003509;86.613;20.2619;77.2586;282.9023;1.3759E-5;1.12E-6;0;Iridium
14.72258258;0.00035;86.613;20.0916;76.6219;283.5388;1.4088E-5;1.14E-6;0;Iridium
14.72258358;0.000349;86.6131;19.8929;76.095;284.0655;1.4475E-5;1.16E-6;0;Iridium
14.72258525;0.0003471;86.6131;19.6373;75.4812;284.679;1.5034E-5;1.2E-6;0;Iridium
14.72258525;0.0003471;86.6131;19.6373;75.4812;284.679;1.5034E-5;1.2E-6;0;Iridium
14.7225858;0.0003463;86.6132;19.4954;75.0243;285.1357;1.497E-5;1.19E-6;0;Iridium
14.7225858;0.0003463;86.6132;19.4954;75.0243;285.1357;1.497E-5;1.19E-6;0;Iridium
14.72258834;0.0003421;86.6133;19.0695;73.8372;286.3221;1.5785E-5;1.24E-6;0;Iridium
14.72258938;0.0003398;86.6134;18.8424;73.1119;287.047;1.5974E-5;1.25E-6;0;Iridium
14.72258999;0.0003384;86.6134;18.6153;72.5114;287.6472;1.5635E-5;1.23E-6;0;Iridium
14.72259094;0.0003363;86.6134;18.4166;72.0106;288.1477;1.6264E-5;1.27E-6;0;Iridium
14.72259094;0.0003363;86.6134;18.4166;72.0106;288.1477;1.6264E-5;1.27E-6;0;Iridium
14.72259201;0.0003348;86.6135;18.1894;71.5602;288.5978;1.6651E-5;1.3E-6;0;Iridium
14.72259315;0.0003309;86.6135;17.7919;70.7673;289.3902;1.5264E-5;1.21E-6;0;Iridium
14.72259436;0.0003292;86.6136;17.5081;69.9242;290.2329;1.5653E-5;1.23E-6;0;Iridium
14.7225944;0.000329;86.6136;17.4797;69.863;290.2941;1.567E-5;1.24E-6;0;Iridium
14.7225953;0.0003283;86.6136;17.3661;69.6209;290.5361;1.6467E-5;1.29E-6;0;Iridium
14.72259667;0.0003271;86.6136;17.0823;68.4248;291.7317;1.7067E-5;1.32E-6;0;Iridium
14.72259756;0.0003254;86.6136;16.9404;68.0809;292.0754;1.7304E-5;1.34E-6;0;Iridium
14.72259905;0.0003218;86.6136;16.6565;67.5388;292.617;1.7399E-5;1.34E-6;0;Iridium
14.72259933;0.0003199;86.6137;16.5146;67.2199;292.9355;1.5943E-5;1.25E-6;0;Iridium
14.72260122;0.000317;86.6137;16.2592;66.5632;293.5919;1.8026E-5;1.38E-6;0;Iridium
14.72260095;0.0003168;86.6137;16.2308;66.5252;293.6298;1.7033E-5;1.32E-6;0;Iridium
14.72260108;0.000315;86.6137;16.0889;66.1603;293.9944;1.468E-5;1.17E-6;0;Iridium
14.72260286;0.0003118;86.6137;15.8334;65.5894;294.5648;1.6265E-5;1.27E-6;0;Iridium
14.72260263;0.000312;86.6137;15.805;65.5072;294.6471;1.5588E-5;1.23E-6;0;Iridium
14.7226034;0.00031;86.6138;15.6631;65.2083;294.9456;1.5411E-5;1.22E-6;0;Iridium
14.72260506;0.0003067;86.6138;15.4076;64.6063;295.5472;1.6149E-5;1.27E-6;0;Iridium
14.7226062;0.0003046;86.6138;15.2373;64.1829;295.9702;1.721E-5;1.33E-6;0;Iridium
14.72260657;0.0003029;86.6138;15.1238;63.8957;296.2571;1.63E-5;1.28E-6;0;Iridium
14.72260726;0.0003002;86.6139;14.8684;63.0689;297.0834;1.4352E-5;1.15E-6;0;Iridium
14.72260821;0.0002971;86.6139;14.6981;62.7238;297.4282;1.4528E-5;1.16E-6;0;Iridium
14.72260821;0.0002971;86.6139;14.6981;62.7238;297.4282;1.4528E-5;1.16E-6;0;Iridium
14.72260924;0.0002937;86.614;14.4427;62.0669;298.0845;1.3787E-5;1.12E-6;0;Iridium
14.72260924;0.0002937;86.614;14.4427;62.0669;298.0845;1.3787E-5;1.12E-6;0;Iridium
14.72261073;0.0002871;86.614;14.0453;61.1537;298.9968;1.3067E-5;1.07E-6;0;Iridium
14.72261139;0.0002846;86.614;13.9034;60.8765;299.2736;1.3806E-5;1.12E-6;0;Iridium
14.72261269;0.0002834;86.614;13.8467;60.831;299.319;1.5729E-5;1.24E-6;0;Iridium
14.72261317;0.0002802;86.6141;13.6196;60.2467;299.9029;1.4776E-5;1.18E-6;0;Iridium
14.72261557;0.0002762;86.6141;13.3641;60.1229;300.0262;1.7187E-5;1.33E-6;0;Iridium
14.72261557;0.0002762;86.6141;13.3641;60.1229;300.0262;1.7187E-5;1.33E-6;0;Iridium
14.72261666;0.0002733;86.6141;13.1654;59.884;300.2647;1.7669E-5;1.36E-6;0;Iridium
14.72240604;0.0002693;86.614;12.9385;60.5672;299.5814;1.8703E-5;1.43E-6;0;Iridium
14.72240647;0.0002675;86.614;12.9101;60.7727;299.3757;2.457E-5;1.8E-6;0;Iridium
14.72241032;0.0002637;86.6141;12.7397;60.6257;299.5223;3.9335E-5;2.73E-6;0;Iridium
14.72241055;0.0002607;86.6141;12.5127;60.1297;300.0179;2.2417E-5;1.66E-6;0;Iridium
14.72241051;0.0002597;86.614;12.4559;60.0543;300.0931;1.9161E-5;1.45E-6;0;Iridium
14.72241219;0.000257;86.6141;12.314;59.9719;300.1753;2.4239E-5;1.77E-6;0;Iridium
14.72241305;0.0002539;86.614;12.087;59.6268;300.52;1.9975E-5;1.51E-6;0;Iridium
14.72241316;0.0002534;86.614;12.0586;59.5882;300.5585;1.9775E-5;1.49E-6;0;Iridium
14.72241466;0.0002508;86.614;11.9167;59.4558;300.6907;2.2597E-5;1.67E-6;0;Iridium
14.72241513;0.0002498;86.614;11.8599;59.3733;300.773;2.3407E-5;1.72E-6;0;Iridium
14.72241761;0.0002432;86.6139;11.4909;58.9094;301.2361;2.3243E-5;1.71E-6;0;Iridium
14.72241838;0.0002411;86.6139;11.3774;58.7488;301.3965;2.3081E-5;1.7E-6;0;Iridium
14.7224187;0.0002406;86.6139;11.349;58.7145;301.4307;2.3233E-5;1.71E-6;0;Iridium
14.72242026;0.000237;86.6139;11.122;58.4993;301.6456;2.2798E-5;1.68E-6;0;Iridium
14.72242226;0.000233;86.6138;10.9233;58.2552;301.8892;2.4126E-5;1.77E-6;0;Iridium
14.72242226;0.000233;86.6138;10.9233;58.2552;301.8892;2.4126E-5;1.77E-6;0;Iridium
14.72242419;0.0002294;86.6138;10.6962;58.005;302.139;2.4487E-5;1.79E-6;0;Iridium
14.72242563;0.0002261;86.6138;10.5259;57.856;302.2876;2.4561E-5;1.79E-6;0;Iridium
14.72242933;0.0002185;86.6137;10.1002;57.5817;302.5611;2.5265E-5;1.84E-6;0;Iridium
14.72242933;0.0002185;86.6137;10.1002;57.5817;302.5611;2.5265E-5;1.84E-6;0;Iridium
14.72243096;0.0002148;86.6137;9.8731;57.4662;302.6763;2.4421E-5;1.79E-6;0;Iridium
14.72243254;0.0002107;86.6137;9.6744;57.3672;302.7748;2.3933E-5;1.76E-6;0;Iridium
14.72243254;0.0002107;86.6137;9.6744;57.3672;302.7748;2.3933E-5;1.76E-6;0;Iridium
14.7224342;0.0002069;86.6136;9.4474;57.627;302.5148;2.3498E-5;1.73E-6;0;Iridium
14.72243641;0.0002031;86.6136;9.2487;57.8029;302.3384;2.4657E-5;1.8E-6;0;Iridium
14.72243723;0.0002003;86.6136;9.0785;57.8761;302.265;2.3693E-5;1.74E-6;0;Iridium
14.72243727;0.0001999;86.6136;9.0501;57.8939;302.2472;2.3198E-5;1.71E-6;0;Iridium
14.72243949;0.0001934;86.6136;8.6528;58.5874;301.5532;2.1391E-5;1.6E-6;0;Iridium
14.72243968;0.0001932;86.6136;8.6243;58.4019;301.7387;2.1196E-5;1.58E-6;0;Iridium
14.72244085;0.0001893;86.6136;8.4256;58.5274;301.6128;2.0287E-5;1.53E-6;0;Iridium
14.72244225;0.0001866;86.6135;8.2269;58.5924;301.5476;2.028E-5;1.52E-6;0;Iridium
14.72244314;0.0001828;86.6135;8.0281;58.8863;301.2533;1.9294E-5;1.46E-6;0;Iridium
14.72244424;0.0001791;86.6135;7.801;59.3136;300.8258;1.8972E-5;1.44E-6;0;Iridium
14.7224473;0.0001727;86.6133;7.3467;59.7327;300.406;1.9771E-5;1.49E-6;0;Iridium
14.72244969;0.0001662;86.6132;6.9776;60.5664;299.5718;2.0139E-5;1.52E-6;0;Iridium
14.72245102;0.0001628;86.6132;6.7788;61.1536;298.9844;2.0715E-5;1.55E-6;0;Iridium
14.7224524;0.0001593;86.6131;6.5234;61.7486;298.3892;2.0826E-5;1.56E-6;0;Iridium
14.72245347;0.0001564;86.6131;6.3247;62.0667;298.0708;2.0452E-5;1.54E-6;0;Iridium
14.72245419;0.0001546;86.613;6.1827;62.4279;297.7095;2.0483E-5;1.54E-6;0;Iridium
14.72245446;0.0001537;86.613;6.0976;62.7804;297.357;1.9823E-5;1.5E-6;0;Iridium
14.72245639;0.0001485;86.6129;5.7569;64.0681;296.0688;1.9349E-5;1.47E-6;0;Iridium
14.72245653;0.0001477;86.6129;5.7001;64.3057;295.8312;1.8806E-5;1.43E-6;0;Iridium
14.72245895;0.000143;86.6127;5.331;65.8975;294.2391;1.9356E-5;1.47E-6;0;Iridium
14.72245904;0.0001426;86.6127;5.3026;66.0611;294.0755;1.9087E-5;1.45E-6;0;Iridium
14.72246134;0.0001382;86.6126;4.9335;68.2106;291.9258;1.8966E-5;1.44E-6;0;Iridium
14.72246134;0.0001382;86.6126;4.9335;68.2106;291.9258;1.8966E-5;1.44E-6;0;Iridium
14.72246184;0.0001377;86.6126;4.8767;68.2725;291.8639;1.9022E-5;1.45E-6;0;Iridium
14.72246298;0.0001351;86.6126;4.7063;69.1778;290.9584;1.8938E-5;1.44E-6;0;Iridium
14.72246536;0.0001304;86.6125;4.2804;71.5999;288.536;1.8454E-5;1.41E-6;0;Iridium
14.72246536;0.0001304;86.6125;4.2804;71.5999;288.536;1.8454E-5;1.41E-6;0;Iridium
14.72246608;0.0001292;86.6124;4.0533;73.0266;287.1092;1.7076E-5;1.32E-6;0;Iridium
14.72246722;0.000128;86.6123;3.8261;75.5261;284.6098;1.6494E-5;1.29E-6;0;Iridium
14.72246816;0.0001269;86.6123;3.6557;76.564;283.5718;1.6381E-5;1.28E-6;0;Iridium
14.72246818;0.0001267;86.6123;3.5989;77.0728;283.063;1.5849E-5;1.25E-6;0;Iridium
14.72246912;0.0001253;86.6122;3.4285;78.2219;281.9138;1.5471E-5;1.22E-6;0;Iridium
14.72246983;0.0001246;86.6122;3.2014;79.8807;280.255;1.4715E-5;1.17E-6;0;Iridium
14.72247135;0.000124;86.6121;2.9458;81.2233;278.9125;1.5687E-5;1.24E-6;0;Iridium
14.72247135;0.000124;86.6121;2.9458;81.2233;278.9125;1.5687E-5;1.24E-6;0;Iridium
14.72247205;0.0001239;86.6121;2.7754;82.9654;277.1704;1.5625E-5;1.23E-6;0;Iridium
14.72247446;0.0001235;86.612;2.3493;85.5421;274.5937;1.6228E-5;1.27E-6;0;Iridium
14.72247527;0.0001232;86.6119;2.2073;86.4824;273.6534;1.6278E-5;1.27E-6;0;Iridium
14.72247637;0.0001231;86.6119;1.9801;88.245;271.8908;1.6656E-5;1.3E-6;0;Iridium
14.72247773;0.0001229;86.6118;1.7813;89.5125;270.6233;1.7927E-5;1.38E-6;0;Iridium
14.72247868;0.0001234;86.6117;1.6108;90.7509;269.3849;1.8703E-5;1.43E-6;0;Iridium
14.72247913;0.0001236;86.6117;1.4688;91.9877;268.1482;1.8429E-5;1.41E-6;0;Iridium
14.72248101;0.0001242;86.6116;1.2984;93.4815;266.6544;2.0334E-5;1.53E-6;0;Iridium
14.72248157;0.0001248;86.6115;1.1847;94.3619;265.774;2.0285E-5;1.53E-6;0;Iridium
14.72248173;0.0001251;86.6115;1.1279;94.7659;265.3701;1.9772E-5;1.49E-6;0;Iridium
14.72248288;0.0001256;86.6115;0.9575;96.0742;264.0618;2.0131E-5;1.52E-6;0;Iridium
14.72248406;0.000127;86.6114;0.7586;97.5645;262.5716;2.0636E-5;1.55E-6;0;Iridium
14.72248404;0.0001273;86.6113;0.7302;97.8758;262.2603;2.0182E-5;1.52E-6;0;Iridium
